STARLINK-32045          
1 60106U 24117R   26068.35300349  .00001173  00000+0  51721-4 0  9998
2 60106  53.1616  38.7739 0001322  93.8989 266.2163 15.30191201 96833
COSMOS 2588             
1 64095U 25109A   26068.81179522  .00009169  00000+0  32611-3 0  9998
2 64095  72.9704  73.5401 0005019 308.6780  51.3966 15.29122656 44425
